[{"OBJECT_NAME":"OBJECT V","OBJECT_ID":"2025-155V","EPOCH":"2026-03-09T20:35:20.067360","MEAN_MOTION":15.27583301,"ECCENTRICITY":0.00080353,"INCLINATION":97.4485,"RA_OF_ASC_NODE":37.249,"ARG_OF_PERICENTER":152.8264,"MEAN_ANOMALY":207.3397,"EPHEMERIS_TYPE":0,"CLASSIFICATION_TYPE":"U","NORAD_CAT_ID":64895,"ELEMENT_SET_NO":999,"REV_AT_EPOCH":6557,"BSTAR":0.00051002361,"MEAN_MOTION_DOT":0.00013705,"MEAN_MOTION_DDOT":0},{"OBJECT_NAME":"STARLINK-35719","OBJECT_ID":"2025-303W","EPOCH":"2026-03-09T09:32:44.047392","MEAN_MOTION":15.27598093,"ECCENTRICITY":0.00016361,"INCLINATION":43.0006,"RA_OF_ASC_NODE":312.0919,"ARG_OF_PERICENTER":257.2789,"MEAN_ANOMALY":102.788,"EPHEMERIS_TYPE":0,"CLASSIFICATION_TYPE":"U","NORAD_CAT_ID":67183,"ELEMENT_SET_NO":999,"REV_AT_EPOCH":1269,"BSTAR":0.00093998371,"MEAN_MOTION_DOT":0.00025709,"MEAN_MOTION_DDOT":0}]
