2025-155V               
1 64895U 25155V   26068.85787115  .00013705  00000+0  51002-3 0  9990
2 64895  97.4485  37.2490 0008035 152.8264 207.3397 15.27583301 65579
STARLINK-35719          
1 67183U 25303W   26068.39773203  .00025709  00000+0  93998-3 0  9997
2 67183  43.0006 312.0919 0001636 257.2789 102.7880 15.27598093 12694
